{
  "type": "FeatureCollection",
  "features": [
    {
      "type": "Feature",
      "properties": {
        "norad_id": 19071,
        "name": "OSCAR 32",
        "group": "nnss",
        "lat": -10.226555735911717,
        "lon": 16.829556263952142,
        "alt_km": 1287.0171144980504,
        "timestamp": "2025-12-20T16:47:36.555232+00:00",
        "meta_object_name": "OSCAR 32",
        "meta_object_id": "1988-033B",
        "meta_epoch": "2025-12-20T12:14:25.703808",
        "meta_mean_motion": 13.27955164,
        "meta_eccentricity": 0.0188962,
        "meta_inclination": 90.321,
        "meta_ra_of_asc_node": 16.7657,
        "meta_arg_of_pericenter": 145.2603,
        "meta_mean_anomaly": 19.1565,
        "meta_ephemeris_type": 0,
        "meta_classification_type": "U",
        "meta_norad_cat_id": 19071,
        "meta_element_set_no": 999,
        "meta_rev_at_epoch": 82368,
        "meta_bstar": 0.00012125,
        "meta_mean_motion_dot": 7e-07,
        "meta_mean_motion_ddot": 0,
        "tle_line1": "1 19071U 88033B   25354.51001972  .00000070  00000+0  12125-3 0  9994",
        "tle_line2": "2 19071  90.3210  16.7657 0188962 145.2603  19.1565 13.27955164823689"
      },
      "geometry": {
        "type": "Point",
        "coordinates": [
          16.829556263952142,
          -10.226555735911717
        ]
      }
    },
    {
      "type": "Feature",
      "properties": {
        "norad_id": 19223,
        "name": "NOVA 2",
        "group": "nnss",
        "lat": 44.635559447801626,
        "lon": 78.27557197035252,
        "alt_km": 1155.0945584771234,
        "timestamp": "2025-12-20T16:47:36.555260+00:00",
        "meta_object_name": "NOVA 2",
        "meta_object_id": "1988-052A",
        "meta_epoch": "2025-12-20T07:50:22.255008",
        "meta_mean_motion": 13.22936602,
        "meta_eccentricity": 0.0029944,
        "meta_inclination": 89.9869,
        "meta_ra_of_asc_node": 78.2631,
        "meta_arg_of_pericenter": 355.9806,
        "meta_mean_anomaly": 72.6667,
        "meta_ephemeris_type": 0,
        "meta_classification_type": "U",
        "meta_norad_cat_id": 19223,
        "meta_element_set_no": 999,
        "meta_rev_at_epoch": 81048,
        "meta_bstar": 8.9438e-05,
        "meta_mean_motion_dot": 4.6e-07,
        "meta_mean_motion_ddot": 0,
        "tle_line1": "1 19223U 88052A   25354.32664647  .00000046  00000+0  89438-4 0  9992",
        "tle_line2": "2 19223  89.9869  78.2631 0029944 355.9806  72.6667 13.22936602810488"
      },
      "geometry": {
        "type": "Point",
        "coordinates": [
          78.27557197035252,
          44.635559447801626
        ]
      }
    },
    {
      "type": "Feature",
      "properties": {
        "norad_id": 19419,
        "name": "OSCAR 25",
        "group": "nnss",
        "lat": -34.993683219728084,
        "lon": 20.293957806802595,
        "alt_km": 1120.2712071220858,
        "timestamp": "2025-12-20T16:47:36.555286+00:00",
        "meta_object_name": "OSCAR 25",
        "meta_object_id": "1988-074A",
        "meta_epoch": "2025-12-20T12:26:18.131424",
        "meta_mean_motion": 13.42624739,
        "meta_eccentricity": 0.009487,
        "meta_inclination": 90.0339,
        "meta_ra_of_asc_node": 20.2696,
        "meta_arg_of_pericenter": 223.3113,
        "meta_mean_anomaly": 304.1551,
        "meta_ephemeris_type": 0,
        "meta_classification_type": "U",
        "meta_norad_cat_id": 19419,
        "meta_element_set_no": 999,
        "meta_rev_at_epoch": 82744,
        "meta_bstar": 0.00013821,
        "meta_mean_motion_dot": 8.9e-07,
        "meta_mean_motion_ddot": 0,
        "tle_line1": "1 19419U 88074A   25354.51826541  .00000089  00000+0  13821-3 0  9996",
        "tle_line2": "2 19419  90.0339  20.2696 0094870 223.3113 304.1551 13.42624739827443"
      },
      "geometry": {
        "type": "Point",
        "coordinates": [
          20.293957806802595,
          -34.993683219728084
        ]
      }
    },
    {
      "type": "Feature",
      "properties": {
        "norad_id": 19420,
        "name": "OSCAR 31",
        "group": "nnss",
        "lat": -26.617876781109977,
        "lon": -159.39635795900196,
        "alt_km": 1036.774025020638,
        "timestamp": "2025-12-20T16:47:36.555305+00:00",
        "meta_object_name": "OSCAR 31",
        "meta_object_id": "1988-074B",
        "meta_epoch": "2025-12-20T08:39:53.017056",
        "meta_mean_motion": 13.42585906,
        "meta_eccentricity": 0.0093226,
        "meta_inclination": 90.0354,
        "meta_ra_of_asc_node": 20.6202,
        "meta_arg_of_pericenter": 217.9149,
        "meta_mean_anomaly": 152.7204,
        "meta_ephemeris_type": 0,
        "meta_classification_type": "U",
        "meta_norad_cat_id": 19420,
        "meta_element_set_no": 999,
        "meta_rev_at_epoch": 82753,
        "meta_bstar": 0.00014549,
        "meta_mean_motion_dot": 9.3e-07,
        "meta_mean_motion_ddot": 0,
        "tle_line1": "1 19420U 88074B   25354.36103029  .00000093  00000+0  14549-3 0  9993",
        "tle_line2": "2 19420  90.0354  20.6202 0093226 217.9149 152.7204 13.42585906827535"
      },
      "geometry": {
        "type": "Point",
        "coordinates": [
          -159.39635795900196,
          -26.617876781109977
        ]
      }
    }
  ]
}